HORYU-4
1 41340U 16012D   18249.84811023  .00000403  00000-0  23990-4 0  9997
2 41340  31.0046 147.2936 0014152 183.9060 176.1466 15.01047638140179
OUFTI-1
1 41458U 16025C   18250.16012789  .00000164  00000-0  13327-4 0  9997
2 41458  98.1286 317.3753 0167946 232.4718 126.1171 15.04886692129760
ESTAR-2
1 41459U 16025D   18250.18217686  .00001043  00000-0  58734-4 0  9991
2 41459  98.1315 317.2027 0169322 233.0523 125.5112 15.04612872129752
AAUSAT4
1 41460U 16025E   18250.14658711  .00000874  00000-0  49392-4 0  9998
2 41460  98.1190 317.7984 0160072 229.0356 129.7030 15.06119111129827
RS-48
1 41465U 16026B   18250.25334388  .00001249  00000-0  41562-4 0  9995
2 41465  97.2125 147.8591 0013308  65.0945  49.2707 15.32930923131918
SAMSAT-218
1 41466U 16026C   18250.25448951  .00004009  00000-0  10428-3 0  9991
2 41466  97.2182 152.4980 0010816  57.2163  65.8418 15.39436946132212
NUSAT-1
1 41557U 16033B   18250.24597858  .00000990  00000-0  40049-4 0  9998
2 41557  97.4348 334.2437 0012540 216.5243 143.5141 15.27049797126683
NUSAT-2
1 41558U 16033C   18250.47560449  .00000998  00000-0  38817-4 0  9998
2 41558  97.4368 334.6791 0012144 219.2409 140.7951 15.28350224126710
SATHYABAMASAT
1 41600U 16040B   18249.61568804 +.00001204 +00000-0 +54799-4 0  9999
2 41600 097.4094 311.7857 0012955 318.6181 041.4073 15.22580783122575
LAPAN-A3
1 41603U 16040E   18250.18847587 -.00000030  00000-0  18013-5 0  9991
2 41603  97.4045 310.1874 0012634 319.9548 124.5804 15.19600712122533
BIROS
1 41604U 16040F   18250.17292835  .00000325  00000-0  17523-4 0  9991
2 41604  97.4061 311.7832 0011084 308.3112  51.7127 15.21446170122639
SWAYAM
1 41607U 16040J   18249.16688549  .00001152  00000-0  52756-4 0  9998
2 41607  97.4061 311.0059 0012506 319.9371  40.0942 15.22459094122424
BEESAT-4
1 41619U 16040W   18250.17203248  .00001010  00000-0  46805-4 0  9994
2 41619  97.4079 312.1619 0010140 307.9703  52.0617 15.22338010110566
3CAT2
1 41732U 16051B   18250.18497321  .00000830  00000-0  34808-4 0  9999
2 41732  97.3700 165.9369 0014162 129.3434   3.4783 15.26205626114684
PRATHAM
1 41783U 16059A   18249.39236734  .00000020  00000-0  13337-4 0  9998
2 41783  98.1103 309.6089 0033230 198.4771 161.5227 14.62940873103833
PEGASUS-1
1 41784U 16059B   18249.61335561 +.00000054 +00000-0 +19693-4 0  9990
2 41784 098.1112 310.2962 0031686 196.2180 163.8011 14.63360324103862
CANX-7
1 41788U 16059F   18250.20671003  .00004699  00000-0  77849-3 0  9990
2 41788  98.2176 317.2485 0031142 187.1020 172.9753 14.70427834104158
ALSAT-1N
1 41789U 16059G   18250.16973484  .00000016  00000-0  12223-4 0  9999
2 41789  98.1114 311.7628 0028163 187.0207 173.0614 14.64176666104013
CAS-2T
1 41847U 16066G   18249.80526010  .00000059  00000-0  19753-4 0  9992
2 41847  98.7451 280.3889 0366188   2.1797 358.0884 14.37919099 96054
KAIDUN-1
1 41915U 17002C   18250.24742417  .00000229  00000-0  17470-4 0  9993
2 41915  97.4780 320.8225 0010464  13.3648  67.1905 15.11053572 91502
ITF-2
1 41932U 98067KU  18250.44589599  .00046575  00000-0  22120-3 0  9995
2 41932  51.6290 275.1596 0002272  99.3822 260.7437 15.82437429 93764
WASEDA-SAT3
1 41933U 98067KV  18250.47175912  .00173552  23431-4  37306-3 0  9994
2 41933  51.6281 261.5544 0004426  52.4547 307.6864 15.98124627 93949
AOBA-VELOX3
1 41935U 98067KX  18250.42080032  .00089305  14076-4  29339-3 0  9993
2 41935  51.6312 267.3936 0003193  63.2729 296.8604 15.90544782 93960
PEASSS
1 42015U 17008BV  18250.24335207  .00000913  00000-0  40416-4 0  9992
2 42015  97.4406 314.5246 0008247  91.8103 268.4079 15.24188804 86418
NAYIF-1
1 42017U 17008BX  18249.74604447  .00001169  00000-0  50201-4 0  9999
2 42017  97.4413 314.2987 0008125  93.4271 266.7896 15.24671970 86493
HAVELSAT
1 42700U 98067LH  18250.14512438  .00030595  00000-0  19674-3 0  9999
2 42700  51.6311 294.2631 0000863 219.0357 141.0581 15.75924618 74923
SOMP-2
1 42701U 98067LJ  18250.13073464  .00028352  00000-0  19384-3 0  9996
2 42701  51.6337 296.4373 0001115 197.0156 163.0806 15.74554352 74884
CXBN-2
1 42704U 98067LM  18250.12668188  .00031177  00000-0  20467-3 0  9994
2 42704  51.6337 295.6690 0002114  60.9276 299.1935 15.75438761 74825
ICECUBE
1 42705U 98067LN  18249.55185286 +.00173870 +23004-4 +43188-3 0  9998
2 42705 051.6454 282.8594 0004146 044.2455 315.8884 15.95501554075001
PHOENIX
1 42706U 98067LP  18250.17891070  .00021633  00000-0  16282-3 0  9995
2 42706  51.6345 297.5291 0001479  70.5372 289.5786 15.72474087 74792
X-CUBESAT
1 42707U 98067LQ  18249.57931417  .00035670  00000-0  21867-3 0  9999
2 42707  51.6330 296.3890 0001962  53.3747 306.7434 15.76932706 74749
QBEE
1 42708U 98067LR  18250.15040702  .00028846  00000-0  18780-3 0  9991
2 42708  51.6326 295.0556 0001827  39.6719 320.4414 15.75674678 74770
ALTAIR
1 42711U 98067LS  18250.16107412  .00013010  00000-0  12732-3 0  9996
2 42711  51.6358 307.9580 0003370 112.4003 247.7350 15.66509685 74315
SHARC
1 42712U 98067LT  18250.19790961  .00023231  00000-0  21045-3 0  9990
2 42712  51.6371 309.0222 0001782  85.5749 274.5451 15.67939494 74540
ZA-AEROSAT
1 42713U 98067LU  18250.15357806  .00021223  00000-0  16992-3 0  9998
2 42713  51.6342 301.1015 0002258  82.8733 277.2521 15.71010346 74408
LINK
1 42714U 98067LV  18250.22085801  .00352840  64084-4  65930-3 0  9994
2 42714  51.6164 277.8008 0006777  33.3532 326.7903 16.00392532 74823
CSUNSAT1
1 42715U 98067LW  18249.55944615  .00023887  00000-0  18312-3 0  9998
2 42715  51.6349 303.1548 0003317  89.5778 270.5601 15.71965619 74328
UPSAT
1 42716U 98067LX  18250.09762218  .00075207  00000-0  31567-3 0  9997
2 42716  51.6290 286.2989 0002575  25.1764 334.9364 15.84857125 74721
SPACECUBE
1 42717U 98067LY  18249.61340677  .00031571  00000-0  20708-3 0  9996
2 42717  51.6295 298.1694 0000168 344.5110  15.5884 15.75451669 73766
HOOPOE
1 42718U 98067LZ  18249.59272331  .00047698  00000-0  25276-3 0  9997
2 42718  51.6280 293.4920 0001278  44.5548 315.5556 15.80049758 73820
NJUST-1
1 42722U 98067MB  18250.20475099  .00017599  00000-0  14879-3 0  9992
2 42722  51.6352 302.9779 0003397 172.7125 187.3922 15.69837337 73458
UNSW-EC0
1 42723U 98067MC  18250.23161924  .00057020  00000-0  27780-3 0  9993
2 42723  51.6376 289.5981 0000851  71.2390 288.8704 15.81805368 73615
DUTHSAT
1 42724U 98067MD  18238.55288637  .32989438  12602-4  94761-3 0  9996
2 42724  51.6129 331.1144 0008406 301.9468  58.5777 16.44741502 71945
LILACSAT-1
1 42725U 98067ME  18250.15541605  .00027824  00000-0  19977-3 0  9992
2 42725  51.6355 298.8747 0001858 163.4273 196.6787 15.73422179 73409
NSIGHT-1
1 42726U 98067MF  18250.19832578  .00008434  00000-0  97390-4 0  9991
2 42726  51.6392 313.5459 0004371 174.4893 185.6150 15.62843970 73225
SNUSAT-1B
1 42727U 98067MG  18250.10494040  .00026951  00000-0  19379-3 0  9995
2 42727  51.6323 299.2141 0004015 126.2549 233.8821 15.73400840 73369
QBITO
1 42728U 98067MH  18250.12536025  .00033879  00000-0  21639-3 0  9997
2 42728  51.6367 295.7227 0000767  67.3082 292.7999 15.76025291 73255
AALTO-2
1 42729U 98067MJ  18250.14910082  .00034567  00000-0  21589-3 0  9998
2 42729  51.6309 295.0341 0000849  40.8320 319.2743 15.76526081 73271
SUSAT
1 42730U 98067MK  18250.17517767  .00028969  00000-0  20137-3 0  9993
2 42730  51.6344 297.4784 0000664 102.4629 257.6444 15.74155550 73237
IINSPIRE
1 42731U 98067ML  18250.12293590  .00056231  00000-0  26305-3 0  9990
2 42731  51.6335 288.7631 0003838  72.6823 287.4599 15.82675681 73392
POLYITAN-2
1 42732U 98067MM  18250.23088725  .00033138  00000-0  20570-3 0  9994
2 42732  51.6316 294.0478 0003901 100.9664 259.1775 15.76681789 73335
SNUSAT-1
1 42733U 98067MN  18250.15865646  .00029539  00000-0  20256-3 0  9992
2 42733  51.6329 297.3535 0003899 111.8042 248.3372 15.74455144 73286
EXALTA-1
1 42734U 98067MP  18250.11446338  .00074802  00000-0  32121-3 0  9999
2 42734  51.6256 287.8470 0002137  86.2548 273.8700 15.84382933 73350
AOXIANG-1
1 42735U 98067MQ  18250.21449008  .00019196  00000-0  15883-3 0  9999
2 42735  51.6341 302.2603 0003722 169.5883 190.5193 15.70289463 74591
BEEAGLESAT
1 42736U 98067MR  18250.17983150  .00024215  00000-0  18221-3 0  9993
2 42736  51.6337 299.7547 0003050 167.4662 192.6413 15.72399469 73317
CAS-4A
1 42761U 17034D   18250.17172829  .00000065  00000-0  17522-4 0  9990
2 42761  43.0203 352.8844 0011192 266.0805 165.8286 15.09434693 67833
CAS-4B
1 42759U 17034B   18250.19498433  .00000118  00000-0  20808-4 0  9991
2 42759  43.0202 353.0385 0010815 264.9991 171.4475 15.09358801 67846
NIUSAT
1 42766U 17036B   18249.73962582  .00000788  00000-0  39035-4 0  9995
2 42766  97.3935 307.3451 0017200 134.8451 225.4185 15.20544023 66928
LITUANICASAT-2
1 42768U 17036D   18250.40777560  .00001651  00000-0  75841-4 0  9998
2 42768  97.3954 308.4731 0016942 134.4052 225.8574 15.21669270 67064
AALTO-1
1 42775U 17036L   18249.16009836  .00000645  00000-0  32243-4 0  9992
2 42775  97.3928 307.0227 0015378 136.4745 223.7707 15.20871537 66807
URSA-MAIOR
1 42776U 17036M   18249.47113168 +.00000726 +00000-0 +35809-4 0  9992
2 42776 097.3935 307.3965 0015244 135.6031 224.6429 15.20963135066851
MAX-VALIER
1 42778U 17036P   18249.80318310  .00000778  00000-0  37621-4 0  9998
2 42778  97.3961 308.1345 0013819 138.5385 221.6902 15.21461390 66910
PEGASUS
1 42784U 17036V   18249.71805699  .00000935  00000-0  44146-4 0  9991
2 42784  97.3938 308.1332 0013295 144.7445 215.4673 15.21836563 66915
NUDTSAT
1 42787U 17036Y   18249.80069439  .00001337  00000-0  60616-4 0  9995
2 42787  97.3947 308.4993 0012877 143.7343 216.4769 15.22489547 66784
SUCHAI
1 42788U 17036Z   18249.72589878  .00001109  00000-0  51353-4 0  9996
2 42788  97.3940 308.2755 0012922 144.2708 215.9395 15.22134527 66991
UCLSAT
1 42789U 17036AA  18249.39896018 +.00001052 +00000-0 +48928-4 0  9998
2 42789 097.3938 307.9409 0012726 145.2699 214.9370 15.22083600066866
